ONEWEB-0342             
1 49208U 21083Y   26061.68529691  .00000064  00000+0  12459-3 0  9991
2 49208  87.9185 295.7004 0001627  87.3687 272.7632 13.20772458222728
ONEWEB-0343             
1 49209U 21083Z   26061.77013407  .00000029  00000+0  41037-4 0  9991
2 49209  87.9247 356.5883 0002340  85.4808 274.6591 13.18685812216010
ONEWEB-0344             
1 49210U 21083AA  26061.77593108  .00000127  00000+0  31270-3 0  9990
2 49210  87.9032 341.4164 0002148  74.6940 285.4426 13.13469419216927
ONEWEB-0345             
1 49211U 21083AB  26061.76745729  .00000169  00000+0  42744-3 0  9992
2 49211  87.9042 341.3852 0002141  76.8065 283.3303 13.13470606216939
ONEWEB-0346             
1 49212U 21083AC  26061.76681607 -.00000001  00000+0 -36365-4 0  9997
2 49212  87.9239 356.5976 0001765  57.0253 303.1048 13.18687346215958
ONEWEB-0348             
1 49213U 21083AD  26061.67583394  .00000113  00000+0  24490-3 0  9999
2 49213  87.9184 295.7056 0001873  66.9026 293.2304 13.20772042222759
ONEWEB-0350             
1 49214U 21083AE  26061.77677603  .00000184  00000+0  46881-3 0  9994
2 49214  87.9044 341.3821 0002082  72.8769 287.2587 13.13469719216964
ONEWEB-0351             
1 49215U 21083AF  26061.66939068  .00000074  00000+0  14928-3 0  9994
2 49215  87.9186 295.7050 0002224 103.2590 256.8792 13.20772477222713
ONEWEB-0352             
1 49216U 21083AG  26061.75731622  .00000159  00000+0  40094-3 0  9998
2 49216  87.9037 341.4027 0002026  90.4509 269.6852 13.13470477217056
ONEWEB-0354             
1 49217U 21083AH  26061.69476532  .00000074  00000+0  14935-3 0  9999
2 49217  87.9184 295.6993 0001838  75.7345 284.3992 13.20772896222756
ONEWEB-0355             
1 49218U 21083AJ  26061.78621237 -.00000132  00000+0 -39523-3 0  9991
2 49218  87.9031 341.4080 0001992  81.5626 278.5729 13.13467692216936
ONEWEB-0357             
1 49219U 21083AK  26061.69161064  .00000088  00000+0  18568-3 0  9993
2 49219  87.9182 295.6946 0001726  87.6405 272.4926 13.20772636222756
ONEWEB-0332             
1 49279U 21090A   26061.72984743 -.00000017  00000+0 -79152-4 0  9999
2 49279  87.8992 310.9478 0001566  87.8886 272.2423 13.14502458213596
ONEWEB-0347             
1 49280U 21090B   26061.68213321 -.00000028  00000+0 -10168-3 0  9996
2 49280  87.9184 295.7055 0001380  88.1628 271.9663 13.20772238216985
ONEWEB-0349             
1 49281U 21090C   26061.71371402 -.00000006  00000+0 -45933-4 0  9991
2 49281  87.9186 295.6985 0001602  82.1420 277.9895 13.20771991215774
ONEWEB-0353             
1 49282U 21090D   26061.72191806 -.00000122  00000+0 -36407-3 0  9995
2 49282  87.9003 310.9438 0001472  87.1283 273.0015 13.14502271213599
ONEWEB-0356             
1 49283U 21090E   26061.71212089  .00000017  00000+0  98074-5 0  9993
2 49283  87.9182 295.6925 0000962  56.2039 303.9186 13.20773071215776
