[{"OBJECT_NAME":"ONEWEB-0342","OBJECT_ID":"2021-083Y","EPOCH":"2026-03-02T16:26:49.653024","MEAN_MOTION":13.20772458,"ECCENTRICITY":0.0001627,"INCLINATION":87.9185,"RA_OF_ASC_NODE":295.7004,"ARG_OF_PERICENTER":87.3687,"MEAN_ANOMALY":272.7632,"EPHEMERIS_TYPE":0,"CLASSIFICATION_TYPE":"U","NORAD_CAT_ID":49208,"ELEMENT_SET_NO":999,"REV_AT_EPOCH":22272,"BSTAR":0.00012459,"MEAN_MOTION_DOT":6.4e-7,"MEAN_MOTION_DDOT":0},{"OBJECT_NAME":"ONEWEB-0343","OBJECT_ID":"2021-083Z","EPOCH":"2026-03-02T18:28:59.583648","MEAN_MOTION":13.18685812,"ECCENTRICITY":0.000234,"INCLINATION":87.9247,"RA_OF_ASC_NODE":356.5883,"ARG_OF_PERICENTER":85.4808,"MEAN_ANOMALY":274.6591,"EPHEMERIS_TYPE":0,"CLASSIFICATION_TYPE":"U","NORAD_CAT_ID":49209,"ELEMENT_SET_NO":999,"REV_AT_EPOCH":21601,"BSTAR":4.1037e-5,"MEAN_MOTION_DOT":2.9e-7,"MEAN_MOTION_DDOT":0},{"OBJECT_NAME":"ONEWEB-0344","OBJECT_ID":"2021-083AA","EPOCH":"2026-03-02T18:37:20.445312","MEAN_MOTION":13.13469419,"ECCENTRICITY":0.0002148,"INCLINATION":87.9032,"RA_OF_ASC_NODE":341.4164,"ARG_OF_PERICENTER":74.694,"MEAN_ANOMALY":285.4426,"EPHEMERIS_TYPE":0,"CLASSIFICATION_TYPE":"U","NORAD_CAT_ID":49210,"ELEMENT_SET_NO":999,"REV_AT_EPOCH":21692,"BSTAR":0.0003127,"MEAN_MOTION_DOT":1.27e-6,"MEAN_MOTION_DDOT":0},{"OBJECT_NAME":"ONEWEB-0345","OBJECT_ID":"2021-083AB","EPOCH":"2026-03-02T18:25:08.309856","MEAN_MOTION":13.13470606,"ECCENTRICITY":0.0002141,"INCLINATION":87.9042,"RA_OF_ASC_NODE":341.3852,"ARG_OF_PERICENTER":76.8065,"MEAN_ANOMALY":283.3303,"EPHEMERIS_TYPE":0,"CLASSIFICATION_TYPE":"U","NORAD_CAT_ID":49211,"ELEMENT_SET_NO":999,"REV_AT_EPOCH":21693,"BSTAR":0.00042744,"MEAN_MOTION_DOT":1.69e-6,"MEAN_MOTION_DDOT":0},{"OBJECT_NAME":"ONEWEB-0346","OBJECT_ID":"2021-083AC","EPOCH":"2026-03-02T18:24:12.908448","MEAN_MOTION":13.18687346,"ECCENTRICITY":0.0001765,"INCLINATION":87.9239,"RA_OF_ASC_NODE":356.5976,"ARG_OF_PERICENTER":57.0253,"MEAN_ANOMALY":303.1048,"EPHEMERIS_TYPE":0,"CLASSIFICATION_TYPE":"U","NORAD_CAT_ID":49212,"ELEMENT_SET_NO":999,"REV_AT_EPOCH":21595,"BSTAR":-3.6365e-5,"MEAN_MOTION_DOT":-1.0e-8,"MEAN_MOTION_DDOT":0},{"OBJECT_NAME":"ONEWEB-0348","OBJECT_ID":"2021-083AD","EPOCH":"2026-03-02T16:13:12.052416","MEAN_MOTION":13.20772042,"ECCENTRICITY":0.0001873,"INCLINATION":87.9184,"RA_OF_ASC_NODE":295.7056,"ARG_OF_PERICENTER":66.9026,"MEAN_ANOMALY":293.2304,"EPHEMERIS_TYPE":0,"CLASSIFICATION_TYPE":"U","NORAD_CAT_ID":49213,"ELEMENT_SET_NO":999,"REV_AT_EPOCH":22275,"BSTAR":0.0002449,"MEAN_MOTION_DOT":1.13e-6,"MEAN_MOTION_DDOT":0},{"OBJECT_NAME":"ONEWEB-0350","OBJECT_ID":"2021-083AE","EPOCH":"2026-03-02T18:38:33.448992","MEAN_MOTION":13.13469719,"ECCENTRICITY":0.0002082,"INCLINATION":87.9044,"RA_OF_ASC_NODE":341.3821,"ARG_OF_PERICENTER":72.8769,"MEAN_ANOMALY":287.2587,"EPHEMERIS_TYPE":0,"CLASSIFICATION_TYPE":"U","NORAD_CAT_ID":49214,"ELEMENT_SET_NO":999,"REV_AT_EPOCH":21696,"BSTAR":0.00046881,"MEAN_MOTION_DOT":1.84e-6,"MEAN_MOTION_DDOT":0},{"OBJECT_NAME":"ONEWEB-0351","OBJECT_ID":"2021-083AF","EPOCH":"2026-03-02T16:03:55.354752","MEAN_MOTION":13.20772477,"ECCENTRICITY":0.0002224,"INCLINATION":87.9186,"RA_OF_ASC_NODE":295.705,"ARG_OF_PERICENTER":103.259,"MEAN_ANOMALY":256.8792,"EPHEMERIS_TYPE":0,"CLASSIFICATION_TYPE":"U","NORAD_CAT_ID":49215,"ELEMENT_SET_NO":999,"REV_AT_EPOCH":22271,"BSTAR":0.00014928,"MEAN_MOTION_DOT":7.4e-7,"MEAN_MOTION_DDOT":0},{"OBJECT_NAME":"ONEWEB-0352","OBJECT_ID":"2021-083AG","EPOCH":"2026-03-02T18:10:32.121408","MEAN_MOTION":13.13470477,"ECCENTRICITY":0.0002026,"INCLINATION":87.9037,"RA_OF_ASC_NODE":341.4027,"ARG_OF_PERICENTER":90.4509,"MEAN_ANOMALY":269.6852,"EPHEMERIS_TYPE":0,"CLASSIFICATION_TYPE":"U","NORAD_CAT_ID":49216,"ELEMENT_SET_NO":999,"REV_AT_EPOCH":21705,"BSTAR":0.00040094,"MEAN_MOTION_DOT":1.59e-6,"MEAN_MOTION_DDOT":0},{"OBJECT_NAME":"ONEWEB-0354","OBJECT_ID":"2021-083AH","EPOCH":"2026-03-02T16:40:27.723648","MEAN_MOTION":13.20772896,"ECCENTRICITY":0.0001838,"INCLINATION":87.9184,"RA_OF_ASC_NODE":295.6993,"ARG_OF_PERICENTER":75.7345,"MEAN_ANOMALY":284.3992,"EPHEMERIS_TYPE":0,"CLASSIFICATION_TYPE":"U","NORAD_CAT_ID":49217,"ELEMENT_SET_NO":999,"REV_AT_EPOCH":22275,"BSTAR":0.00014935,"MEAN_MOTION_DOT":7.4e-7,"MEAN_MOTION_DDOT":0},{"OBJECT_NAME":"ONEWEB-0355","OBJECT_ID":"2021-083AJ","EPOCH":"2026-03-02T18:52:08.748768","MEAN_MOTION":13.13467692,"ECCENTRICITY":0.0001992,"INCLINATION":87.9031,"RA_OF_ASC_NODE":341.408,"ARG_OF_PERICENTER":81.5626,"MEAN_ANOMALY":278.5729,"EPHEMERIS_TYPE":0,"CLASSIFICATION_TYPE":"U","NORAD_CAT_ID":49218,"ELEMENT_SET_NO":999,"REV_AT_EPOCH":21693,"BSTAR":-0.00039523,"MEAN_MOTION_DOT":-1.32e-6,"MEAN_MOTION_DDOT":0},{"OBJECT_NAME":"ONEWEB-0357","OBJECT_ID":"2021-083AK","EPOCH":"2026-03-02T16:35:55.159296","MEAN_MOTION":13.20772636,"ECCENTRICITY":0.0001726,"INCLINATION":87.9182,"RA_OF_ASC_NODE":295.6946,"ARG_OF_PERICENTER":87.6405,"MEAN_ANOMALY":272.4926,"EPHEMERIS_TYPE":0,"CLASSIFICATION_TYPE":"U","NORAD_CAT_ID":49219,"ELEMENT_SET_NO":999,"REV_AT_EPOCH":22275,"BSTAR":0.00018568,"MEAN_MOTION_DOT":8.8e-7,"MEAN_MOTION_DDOT":0},{"OBJECT_NAME":"ONEWEB-0332","OBJECT_ID":"2021-090A","EPOCH":"2026-03-02T17:30:58.817952","MEAN_MOTION":13.14502458,"ECCENTRICITY":0.0001566,"INCLINATION":87.8992,"RA_OF_ASC_NODE":310.9478,"ARG_OF_PERICENTER":87.8886,"MEAN_ANOMALY":272.2423,"EPHEMERIS_TYPE":0,"CLASSIFICATION_TYPE":"U","NORAD_CAT_ID":49279,"ELEMENT_SET_NO":999,"REV_AT_EPOCH":21359,"BSTAR":-7.9152e-5,"MEAN_MOTION_DOT":-1.7e-7,"MEAN_MOTION_DDOT":0},{"OBJECT_NAME":"ONEWEB-0347","OBJECT_ID":"2021-090B","EPOCH":"2026-03-02T16:22:16.309344","MEAN_MOTION":13.20772238,"ECCENTRICITY":0.000138,"INCLINATION":87.9184,"RA_OF_ASC_NODE":295.7055,"ARG_OF_PERICENTER":88.1628,"MEAN_ANOMALY":271.9663,"EPHEMERIS_TYPE":0,"CLASSIFICATION_TYPE":"U","NORAD_CAT_ID":49280,"ELEMENT_SET_NO":999,"REV_AT_EPOCH":21698,"BSTAR":-0.00010168,"MEAN_MOTION_DOT":-2.8e-7,"MEAN_MOTION_DDOT":0},{"OBJECT_NAME":"ONEWEB-0349","OBJECT_ID":"2021-090C","EPOCH":"2026-03-02T17:07:44.891328","MEAN_MOTION":13.20771991,"ECCENTRICITY":0.0001602,"INCLINATION":87.9186,"RA_OF_ASC_NODE":295.6985,"ARG_OF_PERICENTER":82.142,"MEAN_ANOMALY":277.9895,"EPHEMERIS_TYPE":0,"CLASSIFICATION_TYPE":"U","NORAD_CAT_ID":49281,"ELEMENT_SET_NO":999,"REV_AT_EPOCH":21577,"BSTAR":-4.5933e-5,"MEAN_MOTION_DOT":-6.0e-8,"MEAN_MOTION_DDOT":0},{"OBJECT_NAME":"ONEWEB-0353","OBJECT_ID":"2021-090D","EPOCH":"2026-03-02T17:19:33.720384","MEAN_MOTION":13.14502271,"ECCENTRICITY":0.0001472,"INCLINATION":87.9003,"RA_OF_ASC_NODE":310.9438,"ARG_OF_PERICENTER":87.1283,"MEAN_ANOMALY":273.0015,"EPHEMERIS_TYPE":0,"CLASSIFICATION_TYPE":"U","NORAD_CAT_ID":49282,"ELEMENT_SET_NO":999,"REV_AT_EPOCH":21359,"BSTAR":-0.00036407,"MEAN_MOTION_DOT":-1.22e-6,"MEAN_MOTION_DDOT":0},{"OBJECT_NAME":"ONEWEB-0356","OBJECT_ID":"2021-090E","EPOCH":"2026-03-02T17:05:27.244896","MEAN_MOTION":13.20773071,"ECCENTRICITY":9.62e-5,"INCLINATION":87.9182,"RA_OF_ASC_NODE":295.6925,"ARG_OF_PERICENTER":56.2039,"MEAN_ANOMALY":303.9186,"EPHEMERIS_TYPE":0,"CLASSIFICATION_TYPE":"U","NORAD_CAT_ID":49283,"ELEMENT_SET_NO":999,"REV_AT_EPOCH":21577,"BSTAR":9.8074e-6,"MEAN_MOTION_DOT":1.7e-7,"MEAN_MOTION_DDOT":0}]
